{
  "type": "FeatureCollection",
  "features": [
    {
      "type": "Feature",
      "geometry": {
        "type": "Polygon",
        "coordinates": [
          [
            [
              107.728286,
              -6.908693
            ],
            [
              107.728007,
              -6.908416
            ],
            [
              107.72746,
              -6.908832
            ],
            [
              107.72724,
              -6.908896
            ],
            [
              107.72709,
              -6.909135
            ],
            [
              107.726966,
              -6.909316
            ],
            [
              107.726719,
              -6.909556
            ],
            [
              107.726998,
              -6.909753
            ],
            [
              107.727165,
              -6.909631
            ],
            [
              107.727309,
              -6.909577
            ],
            [
              107.727454,
              -6.90937
            ],
            [
              107.727669,
              -6.909183
            ],
            [
              107.727733,
              -6.909231
            ],
            [
              107.727819,
              -6.909162
            ],
            [
              107.727776,
              -6.909087
            ],
            [
              107.728286,
              -6.908693
            ]
          ]
        ]
      },
      "properties": {
        "nomor": "6",
        "nama": "Zona Rimba Agroforestry",
        "kategori": "eksisting",
        "kategori_label": "Kawasan Eksisting",
        "warna": "#00bfff",
        "luas_ha": 0.8659
      }
    }
  ]
}